STARLINK-35828          
1 66351U 25254D   25332.52962519  .00224476  00000+0  14874-2 0  9993
2 66351  53.1590 345.4844 0002368  77.4517 282.6768 15.74329384  3444
STARLINK-35850          
1 66352U 25254E   25332.52927578  .00080784  00000+0  54921-3 0  9990
2 66352  53.1590 345.4817 0001537  92.3746 267.7449 15.74247557  3443
STARLINK-35869          
1 66353U 25254F   25332.52894133  .00200868  00000+0  13403-2 0  9997
2 66353  53.1587 345.4796 0000788 116.6640 243.4460 15.74242155  3449
STARLINK-35895          
1 66354U 25254G   25332.59206611  .00193117  00000+0  12867-2 0  9994
2 66354  53.1588 345.1606 0000886 101.0940 259.0179 15.74300699  3457
STARLINK-35861          
1 66355U 25254H   25332.52826233  .00217395  00000+0  14471-2 0  9994
2 66355  53.1586 345.4749 0001246  94.8520 265.2643 15.74245455  3443
STARLINK-35851          
1 66356U 25254J   25332.52792156  .00202692  00000+0  13519-2 0  9997
2 66356  53.1586 345.4718 0000976 105.1636 254.9492 15.74246192  3449
STARLINK-35817          
1 66357U 25254K   25332.52758516  .00231092  00000+0  15349-2 0  9999
2 66357  53.1586 345.4699 0001274  88.5349 271.5817 15.74254389  3448
STARLINK-35807          
1 66358U 25254L   25332.52724628  .00228131  00000+0  15157-2 0  9994
2 66358  53.1587 345.4671 0001168  89.4366 270.6787 15.74256972  3447
STARLINK-35805          
1 66359U 25254M   25332.52691072  .00168645  00000+0  11310-2 0  9991
2 66359  53.1587 345.4653 0001293  87.4083 272.7085 15.74228135  4581
STARLINK-35823          
1 66360U 25254N   25332.58972138  .00209922  00000+0  13984-2 0  9997
2 66360  53.1586 345.1448 0001279  70.3410 289.7748 15.74251710  3454
STARLINK-35813          
1 66361U 25254P   25332.52657018  .00203017  00000+0  13538-2 0  9993
2 66361  53.1586 345.4631 0000924  88.8575 271.2551 15.74249011  3442
STARLINK-35822          
1 66362U 25254Q   25332.52555602  .00230458  00000+0  15307-2 0  9995
2 66362  53.1583 345.4560 0000680  84.5836 275.5262 15.74255901  3444
