CCSDS_OMM_VERS = 2.0
CREATION_DATE  = 
ORIGINATOR     = 

OBJECT_NAME    = STARLINK-35828
OBJECT_ID      = 2025-254D
CENTER_NAME    = EARTH
REF_FRAME      = TEME
TIME_SYSTEM    = UTC
MEAN_ELEMENT_THEORY = SGP/SGP4

EPOCH          = 2025-11-28T12:42:39.616416
MEAN_MOTION    = 15.74329384
ECCENTRICITY   = .00023686
INCLINATION    = 53.1590
RA_OF_ASC_NODE = 345.4844
ARG_OF_PERICENTER = 77.4517
MEAN_ANOMALY   = 282.6768

EPHEMERIS_TYPE = 0
CLASSIFICATION_TYPE = U
NORAD_CAT_ID   = 66351
ELEMENT_SET_NO = 999
REV_AT_EPOCH   = 344
BSTAR          = .14874352E-2
MEAN_MOTION_DOT = .224476E-2
MEAN_MOTION_DDOT = 0

CCSDS_OMM_VERS = 2.0
CREATION_DATE  = 
ORIGINATOR     = 

OBJECT_NAME    = STARLINK-35850
OBJECT_ID      = 2025-254E
CENTER_NAME    = EARTH
REF_FRAME      = TEME
TIME_SYSTEM    = UTC
MEAN_ELEMENT_THEORY = SGP/SGP4

EPOCH          = 2025-11-28T12:42:09.427392
MEAN_MOTION    = 15.74247557
ECCENTRICITY   = .00015373
INCLINATION    = 53.1590
RA_OF_ASC_NODE = 345.4817
ARG_OF_PERICENTER = 92.3746
MEAN_ANOMALY   = 267.7449

EPHEMERIS_TYPE = 0
CLASSIFICATION_TYPE = U
NORAD_CAT_ID   = 66352
ELEMENT_SET_NO = 999
REV_AT_EPOCH   = 344
BSTAR          = .54920671E-3
MEAN_MOTION_DOT = .80784E-3
MEAN_MOTION_DDOT = 0

CCSDS_OMM_VERS = 2.0
CREATION_DATE  = 
ORIGINATOR     = 

OBJECT_NAME    = STARLINK-35869
OBJECT_ID      = 2025-254F
CENTER_NAME    = EARTH
REF_FRAME      = TEME
TIME_SYSTEM    = UTC
MEAN_ELEMENT_THEORY = SGP/SGP4

EPOCH          = 2025-11-28T12:41:40.530912
MEAN_MOTION    = 15.74242155
ECCENTRICITY   = .00007888
INCLINATION    = 53.1587
RA_OF_ASC_NODE = 345.4796
ARG_OF_PERICENTER = 116.6640
MEAN_ANOMALY   = 243.4460

EPHEMERIS_TYPE = 0
CLASSIFICATION_TYPE = U
NORAD_CAT_ID   = 66353
ELEMENT_SET_NO = 999
REV_AT_EPOCH   = 344
BSTAR          = .13402719E-2
MEAN_MOTION_DOT = .200868E-2
MEAN_MOTION_DDOT = 0

CCSDS_OMM_VERS = 2.0
CREATION_DATE  = 
ORIGINATOR     = 

OBJECT_NAME    = STARLINK-35895
OBJECT_ID      = 2025-254G
CENTER_NAME    = EARTH
REF_FRAME      = TEME
TIME_SYSTEM    = UTC
MEAN_ELEMENT_THEORY = SGP/SGP4

EPOCH          = 2025-11-28T14:12:34.511904
MEAN_MOTION    = 15.74300699
ECCENTRICITY   = .00008861
INCLINATION    = 53.1588
RA_OF_ASC_NODE = 345.1606
ARG_OF_PERICENTER = 101.0940
MEAN_ANOMALY   = 259.0179

EPHEMERIS_TYPE = 0
CLASSIFICATION_TYPE = U
NORAD_CAT_ID   = 66354
ELEMENT_SET_NO = 999
REV_AT_EPOCH   = 345
BSTAR          = .12866626E-2
MEAN_MOTION_DOT = .193117E-2
MEAN_MOTION_DDOT = 0

CCSDS_OMM_VERS = 2.0
CREATION_DATE  = 
ORIGINATOR     = 

OBJECT_NAME    = STARLINK-35861
OBJECT_ID      = 2025-254H
CENTER_NAME    = EARTH
REF_FRAME      = TEME
TIME_SYSTEM    = UTC
MEAN_ELEMENT_THEORY = SGP/SGP4

EPOCH          = 2025-11-28T12:40:41.865312
MEAN_MOTION    = 15.74245455
ECCENTRICITY   = .00012461
INCLINATION    = 53.1586
RA_OF_ASC_NODE = 345.4749
ARG_OF_PERICENTER = 94.8520
MEAN_ANOMALY   = 265.2643

EPHEMERIS_TYPE = 0
CLASSIFICATION_TYPE = U
NORAD_CAT_ID   = 66355
ELEMENT_SET_NO = 999
REV_AT_EPOCH   = 344
BSTAR          = .14471406E-2
MEAN_MOTION_DOT = .217395E-2
MEAN_MOTION_DDOT = 0

CCSDS_OMM_VERS = 2.0
CREATION_DATE  = 
ORIGINATOR     = 

OBJECT_NAME    = STARLINK-35851
OBJECT_ID      = 2025-254J
CENTER_NAME    = EARTH
REF_FRAME      = TEME
TIME_SYSTEM    = UTC
MEAN_ELEMENT_THEORY = SGP/SGP4

EPOCH          = 2025-11-28T12:40:12.422784
MEAN_MOTION    = 15.74246192
ECCENTRICITY   = .00009769
INCLINATION    = 53.1586
RA_OF_ASC_NODE = 345.4718
ARG_OF_PERICENTER = 105.1636
MEAN_ANOMALY   = 254.9492

EPHEMERIS_TYPE = 0
CLASSIFICATION_TYPE = U
NORAD_CAT_ID   = 66356
ELEMENT_SET_NO = 999
REV_AT_EPOCH   = 344
BSTAR          = .13518789E-2
MEAN_MOTION_DOT = .202692E-2
MEAN_MOTION_DDOT = 0

CCSDS_OMM_VERS = 2.0
CREATION_DATE  = 
ORIGINATOR     = 

OBJECT_NAME    = STARLINK-35817
OBJECT_ID      = 2025-254K
CENTER_NAME    = EARTH
REF_FRAME      = TEME
TIME_SYSTEM    = UTC
MEAN_ELEMENT_THEORY = SGP/SGP4

EPOCH          = 2025-11-28T12:39:43.357824
MEAN_MOTION    = 15.74254389
ECCENTRICITY   = .00012741
INCLINATION    = 53.1586
RA_OF_ASC_NODE = 345.4699
ARG_OF_PERICENTER = 88.5349
MEAN_ANOMALY   = 271.5817

EPHEMERIS_TYPE = 0
CLASSIFICATION_TYPE = U
NORAD_CAT_ID   = 66357
ELEMENT_SET_NO = 999
REV_AT_EPOCH   = 344
BSTAR          = .15349435E-2
MEAN_MOTION_DOT = .231092E-2
MEAN_MOTION_DDOT = 0

CCSDS_OMM_VERS = 2.0
CREATION_DATE  = 
ORIGINATOR     = 

OBJECT_NAME    = STARLINK-35807
OBJECT_ID      = 2025-254L
CENTER_NAME    = EARTH
REF_FRAME      = TEME
TIME_SYSTEM    = UTC
MEAN_ELEMENT_THEORY = SGP/SGP4

EPOCH          = 2025-11-28T12:39:14.078592
MEAN_MOTION    = 15.74256972
ECCENTRICITY   = .00011683
INCLINATION    = 53.1587
RA_OF_ASC_NODE = 345.4671
ARG_OF_PERICENTER = 89.4366
MEAN_ANOMALY   = 270.6787

EPHEMERIS_TYPE = 0
CLASSIFICATION_TYPE = U
NORAD_CAT_ID   = 66358
ELEMENT_SET_NO = 999
REV_AT_EPOCH   = 344
BSTAR          = .15156947E-2
MEAN_MOTION_DOT = .228131E-2
MEAN_MOTION_DDOT = 0

CCSDS_OMM_VERS = 2.0
CREATION_DATE  = 
ORIGINATOR     = 

OBJECT_NAME    = STARLINK-35805
OBJECT_ID      = 2025-254M
CENTER_NAME    = EARTH
REF_FRAME      = TEME
TIME_SYSTEM    = UTC
MEAN_ELEMENT_THEORY = SGP/SGP4

EPOCH          = 2025-11-28T12:38:45.086208
MEAN_MOTION    = 15.74228135
ECCENTRICITY   = .00012934
INCLINATION    = 53.1587
RA_OF_ASC_NODE = 345.4653
ARG_OF_PERICENTER = 87.4083
MEAN_ANOMALY   = 272.7085

EPHEMERIS_TYPE = 0
CLASSIFICATION_TYPE = U
NORAD_CAT_ID   = 66359
ELEMENT_SET_NO = 999
REV_AT_EPOCH   = 458
BSTAR          = .11309719E-2
MEAN_MOTION_DOT = .168645E-2
MEAN_MOTION_DDOT = 0

CCSDS_OMM_VERS = 2.0
CREATION_DATE  = 
ORIGINATOR     = 

OBJECT_NAME    = STARLINK-35823
OBJECT_ID      = 2025-254N
CENTER_NAME    = EARTH
REF_FRAME      = TEME
TIME_SYSTEM    = UTC
MEAN_ELEMENT_THEORY = SGP/SGP4

EPOCH          = 2025-11-28T14:09:11.927232
MEAN_MOTION    = 15.74251710
ECCENTRICITY   = .00012799
INCLINATION    = 53.1586
RA_OF_ASC_NODE = 345.1448
ARG_OF_PERICENTER = 70.3410
MEAN_ANOMALY   = 289.7748

EPHEMERIS_TYPE = 0
CLASSIFICATION_TYPE = U
NORAD_CAT_ID   = 66360
ELEMENT_SET_NO = 999
REV_AT_EPOCH   = 345
BSTAR          = .13984124E-2
MEAN_MOTION_DOT = .209922E-2
MEAN_MOTION_DDOT = 0

CCSDS_OMM_VERS = 2.0
CREATION_DATE  = 
ORIGINATOR     = 

OBJECT_NAME    = STARLINK-35813
OBJECT_ID      = 2025-254P
CENTER_NAME    = EARTH
REF_FRAME      = TEME
TIME_SYSTEM    = UTC
MEAN_ELEMENT_THEORY = SGP/SGP4

EPOCH          = 2025-11-28T12:38:15.663552
MEAN_MOTION    = 15.74249011
ECCENTRICITY   = .00009247
INCLINATION    = 53.1586
RA_OF_ASC_NODE = 345.4631
ARG_OF_PERICENTER = 88.8575
MEAN_ANOMALY   = 271.2551

EPHEMERIS_TYPE = 0
CLASSIFICATION_TYPE = U
NORAD_CAT_ID   = 66361
ELEMENT_SET_NO = 999
REV_AT_EPOCH   = 344
BSTAR          = .13538238E-2
MEAN_MOTION_DOT = .203017E-2
MEAN_MOTION_DDOT = 0

CCSDS_OMM_VERS = 2.0
CREATION_DATE  = 
ORIGINATOR     = 

OBJECT_NAME    = STARLINK-35822
OBJECT_ID      = 2025-254Q
CENTER_NAME    = EARTH
REF_FRAME      = TEME
TIME_SYSTEM    = UTC
MEAN_ELEMENT_THEORY = SGP/SGP4

EPOCH          = 2025-11-28T12:36:48.040128
MEAN_MOTION    = 15.74255901
ECCENTRICITY   = .00006808
INCLINATION    = 53.1583
RA_OF_ASC_NODE = 345.4560
ARG_OF_PERICENTER = 84.5836
MEAN_ANOMALY   = 275.5262

EPHEMERIS_TYPE = 0
CLASSIFICATION_TYPE = U
NORAD_CAT_ID   = 66362
ELEMENT_SET_NO = 999
REV_AT_EPOCH   = 344
BSTAR          = .15307403E-2
MEAN_MOTION_DOT = .230458E-2
MEAN_MOTION_DDOT = 0

